NORAD_CAT_ID,OBJECT_NAME,OBJECT_TYPE,EPOCH,MEAN_MOTION,ECCENTRICITY,INCLINATION,RA_OF_ASC_NODE,ARG_OF_PERICENTER,MEAN_ANOMALY,BSTAR,MEAN_MOTION_DOT,MEAN_MOTION_DDOT,TLE_LINE0,TLE_LINE1,TLE_LINE2,SEMIMAJOR_AXIS,PERIOD,APOGEE,PERIGEE,DECAYED
53251.0,STARLINK-4129,PAYLOAD,2024-08-11 01:49:30,15.08837281,0.0001477,53.2166,258.1524,97.3588,262.7572,0.00018374,2.637e-05,0.0,0 STARLINK-4129,1 53251U 22086K   24224.07604540  .00002637  00000-0  18374-3 0  9998,2 53251  53.2166 258.1524 0001477  97.3588 262.7572 15.08837281113983,6917.889,95.438,540.775,538.732,0.0
53251.0,STARLINK-4129,PAYLOAD,2024-08-11 19:18:44,15.08853703,0.0001618,53.2162,254.8796,92.0821,268.0357,0.0002844,4.243e-05,0.0,0 STARLINK-4129,1 53251U 22086K   24224.80467924  .00004243  00000-0  28440-3 0  9992,2 53251  53.2162 254.8796 0001618  92.0821 268.0357 15.08853703114092,6917.839,95.437,540.823,538.584,0.0
53251.0,STARLINK-4129,PAYLOAD,2024-08-12 01:40:17,15.08832585,0.0002119,53.2152,253.6904,91.516,268.6075,-5.9667e-05,-1.238e-05,0.0,0 STARLINK-4129,1 53251U 22086K   24225.06965117 -.00001238  00000-0 -59667-4 0  9997,2 53251  53.2152 253.6904 0002119  91.5160 268.6075 15.08832585114139,6917.903,95.438,541.234,538.302,0.0
53251.0,STARLINK-4129,PAYLOAD,2024-08-12 08:01:50,15.08825984,0.000129,53.2165,252.5009,97.3642,262.7497,-0.00012488,-2.274e-05,0.0,0 STARLINK-4129,1 53251U 22086K   24225.33461241 -.00002274  00000-0 -12488-3 0  9996,2 53251  53.2165 252.5009 0001290  97.3642 262.7497 15.08825984114357,6917.923,95.438,540.681,538.896,0.0
53251.0,STARLINK-4129,PAYLOAD,2024-08-12 19:09:31,15.08855603,0.0001509,53.2161,250.4122,116.3427,243.772,0.00042987,6.563e-05,0.0,0 STARLINK-4129,1 53251U 22086K   24225.79828086  .00006563  00000-0  42987-3 0  9990,2 53251  53.2161 250.4122 0001509 116.3427 243.7720 15.08855603114249,6917.833,95.437,540.742,538.654,0.0
53251.0,STARLINK-4129,PAYLOAD,2024-08-13 11:03:23,15.0883385,0.0001612,53.2152,247.4412,100.3619,259.7554,6.6704e-05,7.74e-06,0.0,0 STARLINK-4129,1 53251U 22086K   24226.46068905  .00000774  00000-0  66704-4 0  9993,2 53251  53.2152 247.4412 0001612 100.3619 259.7554 15.08833850114341,6917.899,95.438,540.879,538.649,0.0
53251.0,STARLINK-4129,PAYLOAD,2024-08-13 19:00:19,15.08840276,0.0001541,53.2151,245.9552,97.2309,262.8858,0.00019986,2.894e-05,0.0,0 STARLINK-4129,1 53251U 22086K   24226.79188837  .00002894  00000-0  19986-3 0  9990,2 53251  53.2151 245.9552 0001541  97.2309 262.8858 15.08840276114576,6917.88,95.438,540.811,538.679,0.0
53251.0,STARLINK-4129,PAYLOAD,2024-08-14 07:43:24,15.08835644,0.0001584,53.2157,243.5773,97.932,262.1852,0.00011172,1.49e-05,0.0,0 STARLINK-4129,1 53251U 22086K   24227.32181253  .00001490  00000-0  11172-3 0  9995,2 53251  53.2157 243.5773 0001584  97.9320 262.1852 15.08835644114657,6917.894,95.438,540.854,538.663,0.0
53251.0,STARLINK-4129,PAYLOAD,2024-08-15 04:23:25,15.0884148,0.0001576,53.2156,239.7119,94.3974,265.7198,0.00022028,3.22e-05,0.0,0 STARLINK-4129,1 53251U 22086K   24228.18293246  .00003220  00000-0  22028-3 0  9991,2 53251  53.2156 239.7119 0001576  94.3974 265.7198 15.08841480114606,6917.876,95.437,540.831,538.651,0.0
53251.0,STARLINK-4129,PAYLOAD,2024-08-15 07:34:11,15.08841545,0.0001551,53.2154,239.1179,91.491,268.626,0.00020723,3.012e-05,0.0,0 STARLINK-4129,1 53251U 22086K   24228.31541266  .00003012  00000-0  20723-3 0  9993,2 53251  53.2154 239.1179 0001551  91.4910 268.6260 15.08841545114801,6917.876,95.437,540.814,538.668,0.0
53251.0,STARLINK-4129,PAYLOAD,2024-08-16 07:24:58,15.08842089,0.0001381,53.2146,234.6559,89.5068,270.6083,0.00015258,2.141e-05,0.0,0 STARLINK-4129,1 53251U 22086K   24229.30901214  .00002141  00000-0  15258-3 0  9995,2 53251  53.2146 234.6559 0001381  89.5068 270.6083 15.08842089114773,6917.874,95.437,540.694,538.784,0.0
53251.0,STARLINK-4129,PAYLOAD,2024-08-17 05:40:22,15.08839168,0.0001341,53.2143,230.4938,89.2432,270.8713,3.7549e-05,3.1e-06,0.0,0 STARLINK-4129,1 53251U 22086K   24230.23637260  .00000310  00000-0  37549-4 0  9990,2 53251  53.2143 230.4938 0001341  89.2432 270.8713 15.08839168114915,6917.883,95.438,540.676,538.82,0.0
53251.0,STARLINK-4129,PAYLOAD,2024-08-18 05:31:09,15.08840987,0.0001345,53.2153,226.0333,97.7283,262.3862,9.5905e-05,1.239e-05,0.0,0 STARLINK-4129,1 53251U 22086K   24231.22997351  .00001239  00000-0  95905-4 0  9991,2 53251  53.2153 226.0333 0001345  97.7283 262.3862 15.08840987115247,6917.877,95.437,540.673,538.812,0.0
53251.0,STARLINK-4129,PAYLOAD,2024-08-18 08:41:55,15.08841766,0.0001325,53.2153,225.4388,92.323,267.7914,9.3407e-05,1.199e-05,0.0,0 STARLINK-4129,1 53251U 22086K   24231.36245306  .00001199  00000-0  93407-4 0  9992,2 53251  53.2153 225.4388 0001325  92.3230 267.7914 15.08841766115086,6917.875,95.437,540.657,538.823,0.0
53251.0,STARLINK-4129,PAYLOAD,2024-08-19 05:21:55,15.08855138,0.0001347,53.2151,221.5733,82.5095,277.605,0.00023424,3.443e-05,0.0,0 STARLINK-4129,1 53251U 22086K   24232.22355906  .00003443  00000-0  23424-3 0  9991,2 53251  53.2151 221.5733 0001347  82.5095 277.6050 15.08855138115213,6917.834,95.437,540.631,538.767,0.0
53251.0,STARLINK-4129,PAYLOAD,2024-08-19 06:57:18,15.08859379,0.0001406,53.2144,221.2763,83.7111,276.4042,0.00032536,4.897e-05,0.0,0 STARLINK-4129,1 53251U 22086K   24232.28979913  .00004897  00000-0  32536-3 0  9995,2 53251  53.2144 221.2763 0001406  83.7111 276.4042 15.08859379115403,6917.821,95.436,540.659,538.714,0.0
53251.0,STARLINK-4129,PAYLOAD,2024-08-20 05:12:43,15.08831971,0.0001132,53.2152,217.1109,75.361,284.7507,-0.00013916,-2.501e-05,0.0,0 STARLINK-4129,1 53251U 22086K   24233.21716877 -.00002501  00000-0 -13916-3 0  9990,2 53251  53.2152 217.1109 0001132  75.3610 284.7507 15.08831971115368,6917.905,95.438,540.553,538.987,0.0
53251.0,STARLINK-4129,PAYLOAD,2024-08-20 08:23:29,15.08832647,0.0001313,53.2146,216.516,85.0066,275.1076,-0.00021521,-3.711e-05,0.0,0 STARLINK-4129,1 53251U 22086K   24233.34964591 -.00003711  00000-0 -21521-3 0  9997,2 53251  53.2146 216.5160 0001313  85.0066 275.1076 15.08832647115563,6917.903,95.438,540.676,538.86,0.0
53251.0,STARLINK-4129,PAYLOAD,2024-08-21 05:03:30,15.08835469,0.0001204,53.2148,212.6504,91.7425,268.3705,0.00017021,2.422e-05,0.0,0 STARLINK-4129,1 53251U 22086K   24234.21076988  .00002422  00000-0  17021-3 0  9994,2 53251  53.2148 212.6504 0001204  91.7425 268.3705 15.08835469115519,6917.894,95.438,540.592,538.926,0.0
